0 DELTA 1 DEB
1 10338U 77065DM  13285.54220674  .00001468  00000-0  29735-3 0  3418
2 10338 029.0643 104.0753 0692880 059.8512 306.9127 13.65608830776631
0 DELTA 1 DEB
1 10338U 77065DM  13286.73053045  .00002548  00000-0  53044-3 0  3427
2 10338 029.0611 097.8309 0693083 069.8952 028.9882 13.65615908776809
0 DELTA 1 DEB
1 10338U 77065DM  13292.73100029  .00003681  00000-0  77431-3 0  3435
2 10338 029.0637 066.2939 0692687 120.7439 008.9574 13.65647542777628
0 DELTA 1 DEB
1 10338U 77065DM  13294.47327130  .00004275  00000-0  90179-3 0  3447
2 10338 029.0633 057.1406 0692685 135.5050 294.5877 13.65658564777864
0 DELTA 1 DEB
1 10338U 77065DM  13295.50012830  .00004785  00000-0  10120-2 0  3454
2 10338 029.0634 051.7447 0692538 144.2103 303.0153 13.65667101778000
